[{"OBJECT_NAME":"EYESAT A (AO-27)","OBJECT_ID":"1993-061C","EPOCH":"2026-03-09T16:58:07.157856","MEAN_MOTION":14.30913089,"ECCENTRICITY":0.00089503,"INCLINATION":98.6982,"RA_OF_ASC_NODE":136.1171,"ARG_OF_PERICENTER":38.8989,"MEAN_ANOMALY":321.2837,"EPHEMERIS_TYPE":0,"CLASSIFICATION_TYPE":"U","NORAD_CAT_ID":22825,"ELEMENT_SET_NO":999,"REV_AT_EPOCH":69277,"BSTAR":7.1797441e-5,"MEAN_MOTION_DOT":1.44e-6,"MEAN_MOTION_DDOT":0},{"OBJECT_NAME":"CZ-6A DEB","OBJECT_ID":"2024-140NV","EPOCH":"2026-03-09T13:59:49.259328","MEAN_MOTION":14.39775672,"ECCENTRICITY":0.0042087,"INCLINATION":88.9704,"RA_OF_ASC_NODE":282.0579,"ARG_OF_PERICENTER":256.5148,"MEAN_ANOMALY":103.1361,"EPHEMERIS_TYPE":0,"CLASSIFICATION_TYPE":"U","NORAD_CAT_ID":61103,"ELEMENT_SET_NO":999,"REV_AT_EPOCH":8032,"BSTAR":0.00024386,"MEAN_MOTION_DOT":7.86e-6,"MEAN_MOTION_DDOT":0}]
